[
    {
        "Altitude(m)": 566303.0258544466,
        "Argument of Periapsis(deg)": -0.022603160782972403,
        "Eccentricity": 0.0,
        "Inclination(deg)": 97.0,
        "Latitude(deg)": 23.052320285860922,
        "Longitude(deg)": -105.3235861817787,
        "Mean Anomaly(deg)": 23.238343269187578,
        "RAAN(deg)": 0.005947053618510769,
        "Satellite Name": "Starlink Shell 3 1640",
        "Satellite Number": 1640,
        "Semi-Major Axis(m)": 6938478.169268562,
        "Time(s)": 570
    },
    {
        "Altitude(m)": 566372.1319969695,
        "Argument of Periapsis(deg)": -0.02299970746337543,
        "Eccentricity": 0.0,
        "Inclination(deg)": 97.0,
        "Latitude(deg)": 23.675127917352334,
        "Longitude(deg)": -105.45563518914814,
        "Mean Anomaly(deg)": 23.863819466892586,
        "RAAN(deg)": 0.00605138789251973,
        "Satellite Name": "Starlink Shell 3 1640",
        "Satellite Number": 1640,
        "Semi-Major Axis(m)": 6938478.169268562,
        "Time(s)": 580
    },
    {
        "Altitude(m)": 566444.4884114171,
        "Argument of Periapsis(deg)": -0.023396254143778456,
        "Eccentricity": 0.0,
        "Inclination(deg)": 97.0,
        "Latitude(deg)": 24.29783243123669,
        "Longitude(deg)": -105.58854220374563,
        "Mean Anomaly(deg)": 24.48929566459759,
        "RAAN(deg)": 0.0061557221665286925,
        "Satellite Name": "Starlink Shell 3 1640",
        "Satellite Number": 1640,
        "Semi-Major Axis(m)": 6938478.169268562,
        "Time(s)": 590
    },
    {
        "Altitude(m)": 566520.0335076638,
        "Argument of Periapsis(deg)": -0.023792800824181483,
        "Eccentricity": 0.0,
        "Inclination(deg)": 97.0,
        "Latitude(deg)": 24.92043042831432,
        "Longitude(deg)": -105.72234126834887,
        "Mean Anomaly(deg)": 25.114771862302646,
        "RAAN(deg)": 0.0062600564405376515,
        "Satellite Name": "Starlink Shell 3 1640",
        "Satellite Number": 1640,
        "Semi-Major Axis(m)": 6938478.169268562,
        "Time(s)": 600
    },
    {
        "Altitude(m)": 566598.7043018617,
        "Argument of Periapsis(deg)": -0.024189347504584503,
        "Eccentricity": 0.0,
        "Inclination(deg)": 97.0,
        "Latitude(deg)": 25.54291847338474,
        "Longitude(deg)": -105.85706750328444,
        "Mean Anomaly(deg)": 25.74024806000766,
        "RAAN(deg)": 0.006364390714546612,
        "Satellite Name": "Starlink Shell 3 1640",
        "Satellite Number": 1640,
        "Semi-Major Axis(m)": 6938478.169268562,
        "Time(s)": 610
    },
    {
        "Altitude(m)": 566680.4364509614,
        "Argument of Periapsis(deg)": -0.02458589418498753,
        "Eccentricity": 0.0,
        "Inclination(deg)": 97.0,
        "Latitude(deg)": 26.16529309229839,
        "Longitude(deg)": -105.99275665928366,
        "Mean Anomaly(deg)": 26.36572425771271,
        "RAAN(deg)": 0.0064687249885555746,
        "Satellite Name": "Starlink Shell 3 1640",
        "Satellite Number": 1640,
        "Semi-Major Axis(m)": 6938478.169268562,
        "Time(s)": 620
    },
    {
        "Altitude(m)": 566765.1642878922,
        "Argument of Periapsis(deg)": -0.024982440865390556,
        "Eccentricity": 0.0,
        "Inclination(deg)": 97.0,
        "Latitude(deg)": 26.787550768796265,
        "Longitude(deg)": -106.12944635443436,
        "Mean Anomaly(deg)": 26.99120045541777,
        "RAAN(deg)": 0.006573059262564535,
        "Satellite Name": "Starlink Shell 3 1640",
        "Satellite Number": 1640,
        "Semi-Major Axis(m)": 6938478.169268562,
        "Time(s)": 630
    },
    {
        "Altitude(m)": 566852.8208573341,
        "Argument of Periapsis(deg)": -0.025378987545793576,
        "Eccentricity": 0.0,
        "Inclination(deg)": 97.0,
        "Latitude(deg)": 27.409687941121433,
        "Longitude(deg)": -106.26717479302542,
        "Mean Anomaly(deg)": 27.616676653122827,
        "RAAN(deg)": 0.006677393536573496,
        "Satellite Name": "Starlink Shell 3 1640",
        "Satellite Number": 1640,
        "Semi-Major Axis(m)": 6938478.169268562,
        "Time(s)": 640
    },
    {
        "Altitude(m)": 566943.3379520864,
        "Argument of Periapsis(deg)": -0.025775534226196602,
        "Eccentricity": 0.0,
        "Inclination(deg)": 97.0,
        "Latitude(deg)": 28.03170099839051,
        "Longitude(deg)": -106.40598200942607,
        "Mean Anomaly(deg)": 28.242152850827882,
        "RAAN(deg)": 0.006781727810582457,
        "Satellite Name": "Starlink Shell 3 1640",
        "Satellite Number": 1640,
        "Semi-Major Axis(m)": 6938478.169268562,
        "Time(s)": 650
    },
    {
        "Altitude(m)": 567036.646150006,
        "Argument of Periapsis(deg)": -0.026172080906599626,
        "Eccentricity": 0.0,
        "Inclination(deg)": 97.0,
        "Latitude(deg)": 28.6535862767057,
        "Longitude(deg)": -106.54590943483123,
        "Mean Anomaly(deg)": 28.867629048532894,
        "RAAN(deg)": 0.006886062084591417,
        "Satellite Name": "Starlink Shell 3 1640",
        "Satellite Number": 1640,
        "Semi-Major Axis(m)": 6938478.169268562,
        "Time(s)": 660
    },
    {
        "Altitude(m)": 567132.6748515139,
        "Argument of Periapsis(deg)": -0.026568627587002652,
        "Eccentricity": 0.0,
        "Inclination(deg)": 97.0,
        "Latitude(deg)": 29.275340054991588,
        "Longitude(deg)": -106.6869994681155,
        "Mean Anomaly(deg)": 29.49310524623795,
        "RAAN(deg)": 0.006990396358600378,
        "Satellite Name": "Starlink Shell 3 1640",
        "Satellite Number": 1640,
        "Semi-Major Axis(m)": 6938478.169268562,
        "Time(s)": 670
    },
    {
        "Altitude(m)": 567231.3523175991,
        "Argument of Periapsis(deg)": -0.02696517426740568,
        "Eccentricity": 0.0,
        "Inclination(deg)": 97.0,
        "Latitude(deg)": 29.896958550538244,
        "Longitude(deg)": -106.82929656396267,
        "Mean Anomaly(deg)": 30.11858144394301,
        "RAAN(deg)": 0.00709473063260934,
        "Satellite Name": "Starlink Shell 3 1640",
        "Satellite Number": 1640,
        "Semi-Major Axis(m)": 6938478.169268562,
        "Time(s)": 680
    },
    {
        "Altitude(m)": 567332.6057083511,
        "Argument of Periapsis(deg)": -0.0273617209478087,
        "Eccentricity": 0.0,
        "Inclination(deg)": 97.0,
        "Latitude(deg)": 30.51843791422875,
        "Longitude(deg)": -106.97284681284617,
        "Mean Anomaly(deg)": 30.744057641648066,
        "RAAN(deg)": 0.007199064906618299,
        "Satellite Name": "Starlink Shell 3 1640",
        "Satellite Number": 1640,
        "Semi-Major Axis(m)": 6938478.169268562,
        "Time(s)": 690
    },
    {
        "Altitude(m)": 567436.3611219764,
        "Argument of Periapsis(deg)": -0.027758267628211725,
        "Eccentricity": 0.0,
        "Inclination(deg)": 97.0,
        "Latitude(deg)": 31.139774225429807,
        "Longitude(deg)": -107.11769752607646,
        "Mean Anomaly(deg)": 31.369533839353128,
        "RAAN(deg)": 0.00730339918062726,
        "Satellite Name": "Starlink Shell 3 1640",
        "Satellite Number": 1640,
        "Semi-Major Axis(m)": 6938478.169268562,
        "Time(s)": 700
    },
    {
        "Altitude(m)": 567542.5436342843,
        "Argument of Periapsis(deg)": -0.028154814308614752,
        "Eccentricity": 0.0,
        "Inclination(deg)": 97.0,
        "Latitude(deg)": 31.760963486523018,
        "Longitude(deg)": -107.26389833916092,
        "Mean Anomaly(deg)": 31.99501003705813,
        "RAAN(deg)": 0.0074077334546362224,
        "Satellite Name": "Starlink Shell 3 1640",
        "Satellite Number": 1640,
        "Semi-Major Axis(m)": 6938478.169268562,
        "Time(s)": 710
    },
    {
        "Altitude(m)": 567651.0773385969,
        "Argument of Periapsis(deg)": -0.02855136098901778,
        "Eccentricity": 0.0,
        "Inclination(deg)": 97.0,
        "Latitude(deg)": 32.382001617048864,
        "Longitude(deg)": -107.41150080813514,
        "Mean Anomaly(deg)": 32.62048623476319,
        "RAAN(deg)": 0.007512067728645183,
        "Satellite Name": "Starlink Shell 3 1640",
        "Satellite Number": 1640,
        "Semi-Major Axis(m)": 6938478.169268562,
        "Time(s)": 720
    },
    {
        "Altitude(m)": 567761.8853860992,
        "Argument of Periapsis(deg)": -0.028947907669420805,
        "Eccentricity": 0.0,
        "Inclination(deg)": 97.0,
        "Latitude(deg)": 33.002884447435704,
        "Longitude(deg)": -107.56055801217626,
        "Mean Anomaly(deg)": 33.24596243246825,
        "RAAN(deg)": 0.007616402002654144,
        "Satellite Name": "Starlink Shell 3 1640",
        "Satellite Number": 1640,
        "Semi-Major Axis(m)": 6938478.169268562,
        "Time(s)": 730
    },
    {
        "Altitude(m)": 567874.8900265992,
        "Argument of Periapsis(deg)": -0.029344454349823825,
        "Eccentricity": 0.0,
        "Inclination(deg)": 97.0,
        "Latitude(deg)": 33.623607712286315,
        "Longitude(deg)": -107.71112567584346,
        "Mean Anomaly(deg)": 33.8714386301733,
        "RAAN(deg)": 0.0077207362766631045,
        "Satellite Name": "Starlink Shell 3 1640",
        "Satellite Number": 1640,
        "Semi-Major Axis(m)": 6938478.169268562,
        "Time(s)": 740
    },
    {
        "Altitude(m)": 567990.0126496213,
        "Argument of Periapsis(deg)": -0.029741001030226845,
        "Eccentricity": 0.0,
        "Inclination(deg)": 97.0,
        "Latitude(deg)": 34.24416704318526,
        "Longitude(deg)": -107.86326178571814,
        "Mean Anomaly(deg)": 34.49691482787836,
        "RAAN(deg)": 0.007825070550672067,
        "Satellite Name": "Starlink Shell 3 1640",
        "Satellite Number": 1640,
        "Semi-Major Axis(m)": 6938478.169268562,
        "Time(s)": 750
    }
]